NAVSTAR 77 (USA 289)    
1 43873U 18109A   24101.52017757  .00000036  00000+0  00000+0 0  9993
2 43873  55.2698 123.7002 0028561 195.7118 336.7996  2.00552817 39028
